{
    "links": {
        "self": "http://www.neowsapp.com/rest/v1/neo/3763546?api_key=iIulBulltgU6a56xZRHN4H3l9WmuAYTsLGpBGhQ2"
    },
    "id": "3763546",
    "neo_reference_id": "3763546",
    "name": "(2016 VA4)",
    "designation": "2016 VA4",
    "nasa_jpl_url": "http://ssd.jpl.nasa.gov/sbdb.cgi?sstr=3763546",
    "absolute_magnitude_h": 22.3,
    "estimated_diameter": {
        "kilometers": {
            "estimated_diameter_min": 0.0921626549,
            "estimated_diameter_max": 0.2060819612
        },
        "meters": {
            "estimated_diameter_min": 92.1626548503,
            "estimated_diameter_max": 206.0819612321
        },
        "miles": {
            "estimated_diameter_min": 0.057267201,
            "estimated_diameter_max": 0.1280533543
        },
        "feet": {
            "estimated_diameter_min": 302.370924539,
            "estimated_diameter_max": 676.1219416887
        }
    },
    "is_potentially_hazardous_asteroid": false,
    "close_approach_data": [
        {
            "close_approach_date": "2016-10-16",
            "close_approach_date_full": "2016-Oct-16 02:37",
            "epoch_date_close_approach": 1476585420000,
            "relative_velocity": {
                "kilometers_per_second": "11.4342053097",
                "kilometers_per_hour": "41163.139114789",
                "miles_per_hour": "25577.1738571865"
            },
            "miss_distance": {
                "astronomical": "0.0729527207",
                "lunar": "28.3786083523",
                "kilometers": "10913571.627424909",
                "miles": "6781378.9525613842"
            },
            "orbiting_body": "Earth"
        }
    ],
    "orbital_data": {
        "orbit_id": "7",
        "orbit_determination_date": "2017-04-06 08:22:18",
        "first_observation_date": "2016-11-08",
        "last_observation_date": "2016-11-26",
        "data_arc_in_days": 18,
        "observations_used": 51,
        "orbit_uncertainty": "8",
        "minimum_orbit_intersection": ".0570951",
        "jupiter_tisserand_invariant": "3.430",
        "epoch_osculation": "2457712.5",
        "eccentricity": ".5917710068528217",
        "semi_major_axis": "2.175422755114381",
        "inclination": "4.956280260999037",
        "ascending_node_longitude": "252.1555950464353",
        "orbital_period": "1171.963071605768",
        "perihelion_distance": ".8880706409898045",
        "perihelion_argument": "89.9122426782846",
        "aphelion_distance": "3.462774869238958",
        "perihelion_time": "2457646.679945903330",
        "mean_anomaly": "20.21840111594569",
        "mean_motion": ".3071769142919709",
        "equinox": "J2000",
        "orbit_class": {
            "orbit_class_type": "APO",
            "orbit_class_description": "Near-Earth asteroid orbits which cross the Earth’s orbit similar to that of 1862 Apollo",
            "orbit_class_range": "a (semi-major axis) > 1.0 AU; q (perihelion) < 1.017 AU"
        }
    },
    "is_sentry_object": false
}